{
    "CCSDS_OMM_VERS": "3.0",
    "COMMENT": "GENERATED VIA SPACE-TRACK.ORG API",
    "CREATION_DATE": "2025-11-22T22:56:46",
    "ORIGINATOR": "18 SPCS",
    "OBJECT_NAME": "NAVSTAR 67 (USA 239)",
    "OBJECT_ID": "2012-053A",
    "CENTER_NAME": "EARTH",
    "REF_FRAME": "TEME",
    "TIME_SYSTEM": "UTC",
    "MEAN_ELEMENT_THEORY": "SGP4",
    "EPOCH": "2025-11-22T09:50:01.715712",
    "MEAN_MOTION": "2.00564876",
    "ECCENTRICITY": "0.01751630",
    "INCLINATION": "53.5538",
    "RA_OF_ASC_NODE": "152.0715",
    "ARG_OF_PERICENTER": "63.6857",
    "MEAN_ANOMALY": "298.1460",
    "EPHEMERIS_TYPE": "0",
    "CLASSIFICATION_TYPE": "U",
    "NORAD_CAT_ID": "38833",
    "ELEMENT_SET_NO": "999",
    "REV_AT_EPOCH": "9529",
    "BSTAR": "0.00000000000000",
    "MEAN_MOTION_DOT": "0.00000071",
    "MEAN_MOTION_DDOT": "0.0000000000000",
    "SEMIMAJOR_AXIS": "26560.236",
    "PERIOD": "717.972",
    "APOAPSIS": "20647.338",
    "PERIAPSIS": "19716.863",
    "OBJECT_TYPE": "PAYLOAD",
    "RCS_SIZE": "LARGE",
    "COUNTRY_CODE": "US",
    "LAUNCH_DATE": "2012-10-04",
    "SITE": "AFETR",
    "DECAY_DATE": null,
    "FILE": "4894327",
    "GP_ID": "303270832",
    "TLE_LINE0": "0 NAVSTAR 67 (USA 239)",
    "TLE_LINE1": "1 38833U 12053A   25326.40974208  .00000071  00000-0  00000+0 0  9995",
    "TLE_LINE2": "2 38833  53.5538 152.0715 0175163  63.6857 298.1460  2.00564876 95298"
}